     2.100          NAVIGATION                              RINEX VERSION / TYPE
fic2rin                                 02/15/2013 00:37:08 PGM / RUN BY / DATE
                                                            END OF HEADER
 2 13  2 14 20  0  0.0  .418554991484D-03  .159161572810D-11  .000000000000D+00
     .850000000000D+02 -.320312500000D+02  .484984487265D-08  .199540983975D+01
    -.158511102200D-05  .120319664711D-01  .107903033495D-04  .515361472321D+04
     .417600000000D+06 -.305473804474D-06  .393719256399D+00  .102445483208D-06
     .939090764168D+00  .158062500000D+03 -.266900707685D+01 -.817319758934D-08
    -.188579283656D-09  .100000000000D+01  .172700000000D+04  .000000000000D+00
     .240000000000D+01  .000000000000D+00 -.176951289177D-07  .850000000000D+02
     .410406000000D+06  .400000000000D+01
 3 13  2 14 20  0  0.0  .168474391103D-03  .511590769747D-11  .000000000000D+00
     .700000000000D+02 -.172500000000D+02  .531057834976D-08  .215587335058D+01
    -.111758708954D-05  .159775493667D-01  .431202352047D-05  .515367206573D+04
     .417600000000D+06  .150874257088D-06 -.774119231779D+00 -.305473804474D-06
     .933508890518D+00  .281031250000D+03  .126917250627D+01 -.841749347953D-08
     .116790579082D-09  .100000000000D+01  .172700000000D+04  .000000000000D+00
     .240000000000D+01  .000000000000D+00 -.465661287308D-08  .700000000000D+02
     .410406000000D+06  .400000000000D+01
 4 13  2 14 20  0  0.0  .134670175612D-03  .111413100967D-10  .000000000000D+00
     .710000000000D+02 -.265937500000D+02  .488056043779D-08 -.103965533270D+01
    -.111199915409D-05  .103611311642D-01  .101607292891D-04  .515375158501D+04
     .417600000000D+06  .104308128357D-06  .410271481043D+00  .234693288803D-06
     .938123046785D+00  .168343750000D+03  .960372414246D+00 -.823605735056D-08
    -.132148361653D-09  .100000000000D+01  .172700000000D+04  .000000000000D+00
     .240000000000D+01  .000000000000D+00 -.605359673500D-08  .710000000000D+02
     .410406000000D+06  .400000000000D+01
 5 13  2 14 20  0  0.0 -.383736100048D-03 -.181898940355D-11  .000000000000D+00
     .940000000000D+02  .819375000000D+02  .491413326480D-08 -.223301036424D+01
     .402703881264D-05  .306570203975D-02  .822171568871D-05  .515356116295D+04
     .417600000000D+06 -.186264514923D-08  .145832955625D+01 -.447034835815D-07
     .948961268480D+00  .216593750000D+03  .322007680707D+00 -.822534261854D-08
     .320013329840D-09  .100000000000D+01  .172700000000D+04  .000000000000D+00
     .240000000000D+01  .000000000000D+00 -.102445483208D-07  .940000000000D+02
     .410406000000D+06  .400000000000D+01
 6 13  2 14 20  0  0.0  .350676942617D-03 -.144382283906D-10  .000000000000D+00
     .350000000000D+02 -.215937500000D+02  .522200323168D-08 -.224180426179D+01
    -.990927219391D-06  .773540488444D-02  .495836138725D-05  .515367936707D+04
     .417600000000D+06 -.141561031342D-06 -.695413179962D+00  .149011611938D-07
     .940255919902D+00  .275781250000D+03 -.384042537530D+00 -.849642533879D-08
     .107147320259D-09  .100000000000D+01  .172700000000D+04  .000000000000D+00
     .240000000000D+01  .000000000000D+00 -.512227416039D-08  .350000000000D+02
     .410406000000D+06  .400000000000D+01
 7 13  2 14 20  0  0.0  .180666800588D-03  .432009983342D-11  .000000000000D+00
     .420000000000D+02 -.373750000000D+02  .406552648835D-08  .593797652547D+00
    -.196695327759D-05  .607253378257D-02  .911206007004D-05  .515371308708D+04
     .417600000000D+06  .242143869400D-07 -.270955417160D+01  .372529029846D-07
     .975970302818D+00  .208593750000D+03 -.292373825794D+01 -.793783064251D-08
    -.317870383435D-09  .100000000000D+01  .172700000000D+04  .000000000000D+00
     .240000000000D+01  .000000000000D+00 -.107102096081D-07  .420000000000D+02
     .410406000000D+06  .400000000000D+01
 8 13  2 14 20  0  0.0  .463286414742D-05  .227373675443D-12  .000000000000D+00
     .120000000000D+02 -.285000000000D+02  .354764777377D-08  .256551592461D-01
    -.162422657013D-05  .127194441156D-01  .951997935772D-05  .515360738945D+04
     .417600000000D+06  .102445483208D-06 -.262057843779D+01  .763684511185D-07
     .998524747215D+00  .214156250000D+03 -.288121339742D+01 -.776818071876D-08
    -.255724937684D-09  .100000000000D+01  .172700000000D+04  .000000000000D+00
     .240000000000D+01  .000000000000D+00 -.419095158577D-08  .120000000000D+02
     .410406000000D+06  .400000000000D+01
 9 13  2 14 20  0  0.0  .220679678023D-03  .261479726760D-11  .000000000000D+00
     .430000000000D+02 -.375312500000D+02  .398266589402D-08  .644933690683D+00
    -.209175050259D-05  .170939568197D-01  .991113483906D-05  .515282236099D+04
     .417600000000D+06 -.219792127609D-06 -.273344816912D+01 -.540167093277D-07
     .984636405693D+00  .206062500000D+03  .163711019559D+01 -.808819404860D-08
    -.334299639208D-09  .100000000000D+01  .172700000000D+04  .000000000000D+00
     .240000000000D+01  .000000000000D+00 -.558793544769D-08  .430000000000D+02
     .410406000000D+06  .400000000000D+01
10 13  2 14 20  0  0.0 -.699143856764D-04 -.136424205266D-11  .000000000000D+00
     .230000000000D+02  .821250000000D+02  .499235080859D-08 -.192186492342D+01
     .404007732868D-05  .122960257577D-01  .743009150028D-05  .515360458755D+04
     .417600000000D+06  .134110450745D-06  .147836081221D+01 -.100582838058D-06
     .943794983524D+00  .224218750000D+03  .793913373587D+00 -.816176854185D-08
     .407516974718D-09  .100000000000D+01  .172700000000D+04  .000000000000D+00
     .240000000000D+01  .000000000000D+00 -.232830643654D-08  .230000000000D+02
     .410406000000D+06  .400000000000D+01
11 13  2 14 20  0  0.0 -.353516545147D-03 -.363797880709D-11  .000000000000D+00
     .620000000000D+02 -.594687500000D+02  .631847747566D-08  .799570550946D+00
    -.314600765705D-05  .138233938487D-01  .814534723759D-05  .515368427277D+04
     .417600000000D+06 -.178813934326D-06  .123869277778D+00 -.167638063431D-07
     .889090613164D+00  .186843750000D+03  .114575132176D+01 -.913180894793D-08
    -.352871841386D-09  .100000000000D+01  .172700000000D+04  .000000000000D+00
     .240000000000D+01  .000000000000D+00 -.116415321827D-07  .620000000000D+02
     .410406000000D+06  .400000000000D+01
12 13  2 14 20  0  0.0  .117877963930D-03  .204636307899D-11  .000000000000D+00
     .800000000000D+02  .311250000000D+02  .407695553585D-08  .327472003038D+00
     .154227018356D-05  .430072401650D-02  .816769897938D-05  .515362398338D+04
     .417600000000D+06  .819563865662D-07 -.165158624836D+01  .726431608200D-07
     .982689023274D+00  .231656250000D+03  .153000162145D+00 -.793818780024D-08
     .346085844436D-09  .100000000000D+01  .172700000000D+04  .000000000000D+00
     .240000000000D+01  .000000000000D+00 -.121071934700D-07  .800000000000D+02
     .410406000000D+06  .400000000000D+01
13 13  2 14 20  0  0.0  .144751742482D-03 -.295585778076D-11  .000000000000D+00
     .550000000000D+02 -.114687500000D+02  .441018370185D-08  .306650922728D+01
    -.491738319397D-06  .499119912274D-02  .417418777943D-05  .515355223656D+04
     .417600000000D+06  .100582838058D-06  .260612568346D+01  .139698386192D-06
     .982689803009D+00  .311531250000D+03  .206914150928D+01 -.809926593836D-08
    -.167506977338D-09  .100000000000D+01  .172700000000D+04  .000000000000D+00
     .240000000000D+01  .000000000000D+00 -.111758708954D-07  .550000000000D+02
     .410406000000D+06  .400000000000D+01
14 13  2 14 20  0  0.0  .220476649702D-03  .227373675443D-12  .000000000000D+00
     .720000000000D+02 -.534375000000D+01  .456304721209D-08 -.309513360698D+01
    -.191852450371D-06  .669306085911D-02  .389851629734D-05  .515370472908D+04
     .417600000000D+06  .577419996262D-07  .257760090653D+01 -.121071934700D-06
     .975385376967D+00  .309625000000D+03 -.202072469061D+01 -.816033991091D-08
    -.202865593023D-09  .100000000000D+01  .172700000000D+04  .000000000000D+00
     .240000000000D+01  .000000000000D+00 -.884756445885D-08  .720000000000D+02
     .410406000000D+06  .400000000000D+01
15 13  2 14 20  0  0.0 -.108378008008D-03 -.125055521494D-11  .000000000000D+00
     .260000000000D+02 -.128125000000D+01  .538451000074D-08  .270577685129D+01
    -.204890966415D-07  .531780067831D-02  .357255339622D-05  .515371043205D+04
     .417600000000D+06 -.135973095894D-06  .248110686660D+01 -.428408384323D-07
     .941984587291D+00  .302093750000D+03  .137678027780D+00 -.858214319500D-08
    -.126433837905D-09  .100000000000D+01  .172700000000D+04  .000000000000D+00
     .240000000000D+01  .000000000000D+00 -.102445483208D-07  .260000000000D+02
     .410406000000D+06  .400000000000D+01
16 13  2 14 20  0  0.0 -.252366531640D-03 -.113686837722D-12  .000000000000D+00
     .880000000000D+02  .211250000000D+02  .397587989707D-08 -.189863200834D+01
     .107474625111D-05  .694671133533D-02  .824779272079D-05  .515358191681D+04
     .417600000000D+06 -.745058059692D-08 -.163325408690D+01 -.651925802231D-07
     .983414108379D+00  .235125000000D+03  .343026026011D-01 -.778603860547D-08
     .430732227440D-09  .100000000000D+01  .172700000000D+04  .000000000000D+00
     .240000000000D+01  .000000000000D+00 -.977888703346D-08  .880000000000D+02
     .410406000000D+06  .400000000000D+01
17 13  2 14 20  0  0.0  .496553257108D-04 -.386535248253D-11  .000000000000D+00
     .850000000000D+02 -.399687500000D+02  .456733310490D-08 -.295694008637D+01
    -.203587114811D-05  .817807845306D-02  .497512519360D-05  .515358254242D+04
     .417600000000D+06  .409781932831D-07 -.594922472703D+00 -.113621354103D-06
     .964791759564D+00  .284906250000D+03 -.222727925101D+01 -.807926510525D-08
    -.217866217860D-10  .100000000000D+01  .172700000000D+04  .000000000000D+00
     .240000000000D+01  .000000000000D+00 -.102445483208D-07  .850000000000D+02
     .410406000000D+06  .400000000000D+01
